64P/Swift-Gehrels,e,8.9503,300.0001,97.0747,4.454055,0.1048505,0.68782122,88.5901,02/26.0/2021,2000,g  9.5,12.0
# From MPC104795
65P/Gunn,e,9.1805,62.0213,213.8541,3.885370,0.1286932,0.24958678,157.9316,02/26.0/2021,2000,g  5.0,6.0
# From MPC109147
66P/du Toit,e,18.6527,21.8437,257.3549,6.065475,0.0659792,0.78682456,66.8921,02/26.0/2021,2000,g  9.0,4.0
# From MPC 89011
67P/Churyumov-Gerasimenko,e,3.8710,36.3721,22.0873,3.458986,0.1532078,0.65009845,321.8521,02/26.0/2021,2000,g 11.0,4.0
# From MPC 75716
68P/Klemola,e,11.1101,175.0685,153.1146,4.952292,0.0894324,0.63763796,42.4700,02/26.0/2021,2000,g 10.0,4.0
# From MPC114607
69P/Taylor,e,22.0334,104.8281,343.4664,3.888001,0.1285626,0.41305813,91.3886,02/26.0/2021,2000,g  9.5,12.0
# From MPEC 2021-BE3
70P/Kojima,e,6.5982,119.2685,1.8457,3.676301,0.1398259,0.45354456,325.0199,02/26.0/2021,2000,g 11.0,6.0
# From MPC107051
71P/Clark,e,9.4388,59.4237,209.0409,3.138311,0.1772801,0.49403285,236.8889,02/26.0/2021,2000,g  9.8,6.0
# From MPC 89011
72P/Denning-Fujikawa,e,10.9386,26.6902,346.6820,4.311109,0.1101084,0.81830579,267.5021,02/26.0/2021,2000,g 17.5,10.0
# From MPC106348
73P/Schwassmann-Wachmann,e,11.2304,69.6366,199.4604,3.092984,0.1811914,0.68558407,261.1433,02/26.0/2021,2000,g 11.5,6.0
# From MPC106348
73P-T/Schwassmann-Wachmann,e,11.2325,69.6392,199.4418,3.094546,0.1810542,0.68578680,260.9467,02/26.0/2021,2000,g 11.5,6.0
# From MPEC 2021-BE3
74P/Smirnova-Chernykh,e,6.3491,74.9630,99.5831,4.276175,0.1114605,0.15227120,118.0447,02/26.0/2021,2000,g  5.0,6.0
# From MPEC 2020-SI8
76P/West-Kohoutek-Ikemura,e,30.4581,84.1189,359.9805,3.473090,0.1522755,0.53810446,74.4523,02/26.0/2021,2000,g  8.0,12.0
# From MPC100283
77P/Longmore,e,24.3202,14.7866,196.8493,3.621396,0.1430178,0.35213613,250.4023,02/26.0/2021,2000,g  7.0,8.0
# From MPEC 2016-U66
78P/Gehrels,e,6.2504,210.5233,192.6358,3.739146,0.1363155,0.46193489,94.7777,02/26.0/2021,2000,g  9.0,4.0
# From MPC 94675
79P/du Toit-Hartley,e,3.1480,280.5291,281.8083,2.942839,0.1952335,0.61887452,175.1431,02/26.0/2021,2000,g 16.0,4.0
# From MPEC 2014-P41
80P/Peters-Hartley,e,29.9346,259.8190,339.2534,4.024311,0.1220862,0.59889114,280.5524,02/26.0/2021,2000,g  9.0,4.0
# From MPC105241
81P/Wild,e,3.2368,136.0995,41.6917,3.451238,0.1537240,0.53705239,258.8819,02/26.0/2021,2000,g  7.0,6.0
# From MPEC 2020-L06
82P/Gehrels,e,1.1285,239.3095,226.7368,4.135797,0.1171832,0.12169063,114.4467,02/26.0/2021,2000,g  5.0,8.0
# From MPEC 2020-SI8
84P/Giclas,e,7.5521,108.1748,281.5704,3.548773,0.1474303,0.51565570,39.3874,02/26.0/2021,2000,g  9.5,8.0
# From MPC109147
86P/Wild,e,15.4740,72.3641,179.3624,3.602963,0.1441167,0.37250259,310.0666,02/26.0/2021,2000,g 11.0,6.0
# From MPEC 2020-SI8
87P/Bus,e,2.6037,181.8359,25.0508,3.441418,0.1543825,0.38969036,45.1488,02/26.0/2021,2000,g  7.2,10.0
# From MPEC 2019-JE2
88P/Howell,e,4.3837,56.6800,235.9019,3.105193,0.1801239,0.56427201,27.4513,02/26.0/2021,2000,g 11.0,6.0
# From MPC100283
89P/Russell,e,12.0694,41.3903,250.3227,3.753961,0.1355094,0.40863649,207.7152,02/26.0/2021,2000,g 11.5,6.0
# From MPC107051
90P/Gehrels,e,9.6451,13.2072,29.0766,6.053384,0.0661770,0.50995727,89.1956,02/26.0/2021,2000,g  8.5,6.0
# From MPC105241
91P/Russell,e,14.0901,247.8263,354.8241,3.891750,0.1283768,0.33083399,13.9330,02/26.0/2021,2000,g  7.5,6.0
# From MPEC 2014-J58
92P/Sanguin,e,19.4913,181.3734,163.7388,5.344678,0.0797667,0.66080733,174.3771,02/26.0/2021,2000,g 12.0,6.0
# From NK 2707
93P/Lovas,e,12.2031,339.6425,74.8235,4.383315,0.1073989,0.61240657,156.6049,02/26.0/2021,2000,g  9.0,4.0
# From MPEC 2020-W26
94P/Russell,e,6.1879,70.8595,92.4730,3.507249,0.1500562,0.36481634,237.7673,02/26.0/2021,2000,g  9.0,6.0
# From MPC 75717
95P/Chiron,e,6.9329,209.2652,339.7476,13.69663,0.0194439,0.37766002,178.2012,02/26.0/2021,2000,g  6.5,2.0
# From MPEC 2017-T14
96P/Machholz,e,57.6687,94.0300,14.7266,3.027844,0.1870699,0.96160399,228.2334,02/26.0/2021,2000,g  9.0,4.0
# From MPC 77020
97P/Metcalf-Brewington,e,17.9379,184.0918,229.8252,4.769285,0.0946290,0.46086035,326.4971,02/26.0/2021,2000,g  5.5,6.0
# From MPEC 2013-H38
98P/Takamizawa,e,10.5612,114.7116,157.9184,3.800076,0.1330503,0.56237677,6.9284,02/26.0/2021,2000,g  9.0,8.0
# From MPEC 2021-BE3
99P/Kowal,e,4.3386,28.1098,174.9590,6.110890,0.0652450,0.22993446,333.1915,02/26.0/2021,2000,g  4.5,6.0
# From MPEC 2013-O31
100P/Hartley,e,25.5664,37.7051,181.9958,3.432143,0.1550087,0.41239724,277.6959,02/26.0/2021,2000,g  9.0,4.0
# From MPC115887
101P/Chernykh,e,5.0528,116.2308,277.6987,5.801866,0.0705265,0.59586628,28.9461,02/26.0/2021,2000,g 12.0,4.8
# From MPC 86232
102P/Shoemaker,e,25.8848,339.3659,20.5391,3.813011,0.1323738,0.45714297,4.5813,02/26.0/2021,2000,g  6.5,8.0
# From MPEC 2018-HA5
103P/Hartley,e,13.5987,219.7294,181.2854,3.476280,0.1520660,0.69313177,214.1706,02/26.0/2021,2000,g  8.5,8.0
# From MPC100283
104P/Kowal,e,5.7176,207.5054,227.0139,3.208747,0.1714750,0.66590838,305.3000,02/26.0/2021,2000,g 16.0,4.0
# From MPC109147
105P/Singer Brewster,e,9.1713,192.4151,46.4831,3.467068,0.1526724,0.40961207,142.1671,02/26.0/2021,2000,g 11.5,6.0
# From MPC 92276
106P/Schuster,e,19.5353,48.8976,353.6440,3.764082,0.1349632,0.59388077,336.5513,02/26.0/2021,2000,g 14.0,4.8
# From MPEC 2015-M77
107P/Wilson-Harrington,e,2.7985,266.8000,95.3937,2.625427,0.2316883,0.63147639,233.7906,02/26.0/2021,2000,g  9.0,4.0
# From MPC 89313
108P/Ciffreo,e,11.4364,50.3083,354.3798,3.740664,0.1362326,0.55613906,333.2935,02/26.0/2021,2000,g  8.0,12.0
# From  105, 420
109P/Swift-Tuttle,e,113.9872,139.0392,152.8984,26.13160,0.0073783,0.96294559,76.0957,02/26.0/2021,2000,g  4.0,6.0
# From MPEC 2020-W26
110P/Hartley,e,11.7073,287.5336,167.4572,3.600918,0.1442395,0.31802678,326.1971,02/26.0/2021,2000,g  1.0,12.0
# From MPC 75718
111P/Helin-Roman-Crockett,e,4.2271,89.7664,1.0274,4.146455,0.1167316,0.10583537,347.1729,02/26.0/2021,2000,g  5.0,8.0
# From MPC118097
112P/Urata-Niijima,e,24.1934,31.8389,21.4904,3.525881,0.1488685,0.58983412,57.1700,02/26.0/2021,2000,g 14.0,6.0
# From MPEC 2015-E14
113P/Spitaler,e,5.3004,306.7175,115.3094,3.703069,0.1383125,0.42195073,296.4542,02/26.0/2021,2000,g 13.5,4.0
# From MPEC 2021-BE3
114P/Wiseman-Skiff,e,18.2725,271.0542,172.7842,3.545821,0.1476144,0.55472284,60.3680,02/26.0/2021,2000,g 11.5,6.0
# From MPEC 2020-SI8
115P/Maury,e,11.6773,176.0096,120.9848,4.273300,0.1115730,0.51870413,23.5812,02/26.0/2021,2000,g 10.5,6.0
# From MPC106348
116P/Wild,e,3.6035,20.9882,173.3555,3.489424,0.1512075,0.37067971,283.4818,02/26.0/2021,2000,g  2.5,10.0
# From MPEC 2015-S97
117P/Helin-Roman-Alu,e,8.7021,58.8457,222.8186,4.085312,0.1193620,0.25574717,300.7820,02/26.0/2021,2000,g  9.0,4.0
# From MPC 95735
118P/Shoemaker-Levy,e,10.0550,142.1327,314.0732,3.370127,0.1593069,0.45635834,259.1896,02/26.0/2021,2000,g 12.0,4.0
# From MPC 84628
119P/Parker-Hartley,e,7.4196,104.7630,321.5184,3.823096,0.1318504,0.39138731,290.1260,02/26.0/2021,2000,g  3.5,8.0
# From MPEC 2020-SI8
120P/Mueller,e,8.4899,358.6741,36.5495,3.961547,0.1249991,0.37451599,351.2359,02/26.0/2021,2000,g 12.0,4.0
# From MPEC 2020-SI8
121P/Shoemaker-Holt,e,20.1630,94.1317,11.3292,4.585309,0.1003809,0.18545590,274.5580,02/26.0/2021,2000,g  6.5,8.0
# From MPC 75718
122P/de Vico,e,84.8325,79.5418,13.0110,17.62835,0.0133164,0.96225848,123.8196,02/26.0/2021,2000,g  7.5,5.2
# From MPC114608
123P/West-Hartley,e,15.3032,46.2649,103.6931,3.871843,0.1293682,0.44772721,97.2319,02/26.0/2021,2000,g  4.0,10.0
# From MPEC 2020-SI8
124P/Mrkos,e,31.5144,0.3532,183.9150,3.319290,0.1629807,0.50349379,49.7161,02/26.0/2021,2000,g 13.5,2.8
# From MPEC 2015-M77
125P/Spacewatch,e,9.9867,153.1525,87.2371,3.125637,0.1783595,0.51281285,162.9156,02/26.0/2021,2000,g  9.0,4.0
# From MPC 66205
126P/IRAS,e,45.8654,357.8589,356.5153,5.640747,0.0735697,0.69621344,296.7760,02/26.0/2021,2000,g  9.0,4.0
# From MPC 84321
127P/Holt-Olmstead,e,14.2970,13.6404,6.4934,3.450660,0.1537626,0.35986601,278.3296,02/26.0/2021,2000,g 11.0,6.0
# From MPC 89014
128P/Shoemaker-Holt,e,4.3670,214.2954,210.3243,4.492730,0.1034996,0.32060976,156.1552,02/26.0/2021,2000,g  8.5,4.0
# From MPEC 2019-TG9
129P/Shoemaker-Levy,e,3.4425,184.8853,307.9198,4.282737,0.1112044,0.08397112,288.1737,02/26.0/2021,2000,g 11.0,4.0
# From MPC 78188
130P/McNaught-Hughes,e,6.0630,70.2326,245.9938,3.383840,0.1583395,0.46136249,178.9988,02/26.0/2021,2000,g 10.0,6.0
# From MPC102101
131P/Mueller,e,7.3546,214.1625,179.0291,3.680935,0.1395619,0.34381750,106.5911,02/26.0/2021,2000,g 11.0,4.0
# From MPEC 2020-HN5
132P/Helin-Roman-Alu,e,5.3800,174.0221,216.3513,3.888369,0.1285443,0.56509356,326.5609,02/26.0/2021,2000,g 11.0,6.0
# From MPC 94676
133P/Elst-Pizarro,e,1.3891,160.1137,131.8000,3.164437,0.1750892,0.15702422,155.5219,02/26.0/2021,2000,g 15.4,2.0
# From MPC 89012
134P/Kowal-Vavrova,e,4.3411,202.0762,18.8852,6.259538,0.0629348,0.58627018,155.7274,02/26.0/2021,2000,g 11.5,4.0
# From MPEC 2015-E14
135P/Shoemaker-Levy,e,6.0616,213.0335,22.2828,3.803545,0.1328682,0.29536752,306.1644,02/26.0/2021,2000,g  9.0,4.0
# From MPEC 2020-W26
136P/Mueller,e,9.4243,137.4478,224.8902,4.194011,0.1147519,0.29260165,198.6067,02/26.0/2021,2000,g 11.0,4.0
# From MPEC 2020-HN5
137P/Shoemaker-Levy,e,4.8536,233.0432,141.0227,4.520535,0.1025461,0.57342081,82.5874,02/26.0/2021,2000,g 11.0,4.0
# From MPEC 2016-U66
138P/Shoemaker-Levy,e,10.0911,309.3320,95.5519,3.622492,0.1429529,0.53041390,95.0903,02/26.0/2021,2000,g 15.0,6.0
# From MPEC 2020-HN5
139P/Vaisala-Oterma,e,2.3337,242.1809,165.7379,4.523245,0.1024540,0.24662961,120.3338,02/26.0/2021,2000,g  9.5,4.0
# From MPEC 2015-E14
140P/Bowell-Skiff,e,3.8318,343.2897,172.8892,6.431600,0.0604262,0.69137465,122.7367,02/26.0/2021,2000,g 11.5,6.0
# From MPEC 2021-AJ0
141P/Machholz,e,13.9450,241.8484,153.5461,3.057001,0.1843999,0.73571083,13.2250,02/26.0/2021,2000,g 14.7,4.0
# From MPC 71683
142P/Ge-Wang,e,12.2481,175.9361,173.9580,5.006305,0.0879889,0.49802783,353.3448,02/26.0/2021,2000,g  9.0,4.0
# From MPEC 2021-BE3
